{
  "name": "Map tiles",
  "version": "1.1.0",
  "description": "",
  "attribution": "Rendered with <a href=\"https://www.maptiler.com/desktop/\">MapTiler Desktop</a>",
  "type": "baselayer",
  "format": "pbf",
  "minzoom": "1",
  "maxzoom": "5",
  "scale": "1.000000",
  "bounds": [-180.00000000, -85.05112878, 180.00000000, 83.59960937],
  "profile": "mercator",
  "vector_layers": [{"id":"ne_50m_admin_0_countries","description":"","minzoom":1, "maxzoom":5,"fields":{"featurecla":"String","scalerank":"Number","LABELRANK":"Number","SOVEREIGNT":"String","SOV_A3":"String","ADM0_DIF":"Number","LEVEL":"Number","TYPE":"String","ADMIN":"String","ADM0_A3":"String","GEOU_DIF":"Number","GEOUNIT":"String","GU_A3":"String","SU_DIF":"Number","SUBUNIT":"String","SU_A3":"String","BRK_DIFF":"Number","NAME":"String","NAME_LONG":"String","BRK_A3":"String","BRK_NAME":"String","BRK_GROUP":"String","ABBREV":"String","POSTAL":"String","FORMAL_EN":"String","FORMAL_FR":"String","NAME_CIAWF":"String","NOTE_ADM0":"String","NOTE_BRK":"String","NAME_SORT":"String","NAME_ALT":"String","MAPCOLOR7":"Number","MAPCOLOR8":"Number","MAPCOLOR9":"Number","MAPCOLOR13":"Number","POP_EST":"Number","POP_RANK":"Number","GDP_MD_EST":"Number","POP_YEAR":"Number","LASTCENSUS":"Number","GDP_YEAR":"Number","ECONOMY":"String","INCOME_GRP":"String","WIKIPEDIA":"Number","FIPS_10_":"String","ISO_A2":"String","ISO_A3":"String","ISO_A3_EH":"String","ISO_N3":"String","UN_A3":"String","WB_A2":"String","WB_A3":"String","WOE_ID":"Number","WOE_ID_EH":"Number","WOE_NOTE":"String","ADM0_A3_IS":"String","ADM0_A3_US":"String","ADM0_A3_UN":"Number","ADM0_A3_WB":"Number","CONTINENT":"String","REGION_UN":"String","SUBREGION":"String","REGION_WB":"String","NAME_LEN":"Number","LONG_LEN":"Number","ABBREV_LEN":"Number","TINY":"Number","HOMEPART":"Number","MIN_ZOOM":"Number","MIN_LABEL":"Number","MAX_LABEL":"Number","NE_ID":"Number","WIKIDATAID":"String","NAME_AR":"String","NAME_BN":"String","NAME_DE":"String","NAME_EN":"String","NAME_ES":"String","NAME_FR":"String","NAME_EL":"String","NAME_HI":"String","NAME_HU":"String","NAME_ID":"String","NAME_IT":"String","NAME_JA":"String","NAME_KO":"String","NAME_NL":"String","NAME_PL":"String","NAME_PT":"String","NAME_RU":"String","NAME_SV":"String","NAME_TR":"String","NAME_VI":"String","NAME_ZH":"String"}},{"id":"50m_countries_label_points","description":"","minzoom":1, "maxzoom":5,"fields":{"featurecla":"String","scalerank":"Number","LABELRANK":"Number","SOVEREIGNT":"String","SOV_A3":"String","ADM0_DIF":"Number","LEVEL":"Number","TYPE":"String","ADMIN":"String","ADM0_A3":"String","GEOU_DIF":"Number","GEOUNIT":"String","GU_A3":"String","SU_DIF":"Number","SUBUNIT":"String","SU_A3":"String","BRK_DIFF":"Number","NAME":"String","NAME_LONG":"String","BRK_A3":"String","BRK_NAME":"String","BRK_GROUP":"String","ABBREV":"String","POSTAL":"String","FORMAL_EN":"String","FORMAL_FR":"String","NAME_CIAWF":"String","NOTE_ADM0":"String","NOTE_BRK":"String","NAME_SORT":"String","NAME_ALT":"String","MAPCOLOR7":"Number","MAPCOLOR8":"Number","MAPCOLOR9":"Number","MAPCOLOR13":"Number","POP_EST":"Number","POP_RANK":"Number","GDP_MD_EST":"Number","POP_YEAR":"Number","LASTCENSUS":"Number","GDP_YEAR":"Number","ECONOMY":"String","INCOME_GRP":"String","WIKIPEDIA":"Number","FIPS_10_":"String","ISO_A2":"String","ISO_A3":"String","ISO_A3_EH":"String","ISO_N3":"String","UN_A3":"String","WB_A2":"String","WB_A3":"String","WOE_ID":"Number","WOE_ID_EH":"Number","WOE_NOTE":"String","ADM0_A3_IS":"String","ADM0_A3_US":"String","ADM0_A3_UN":"Number","ADM0_A3_WB":"Number","CONTINENT":"String","REGION_UN":"String","SUBREGION":"String","REGION_WB":"String","NAME_LEN":"Number","LONG_LEN":"Number","ABBREV_LEN":"Number","TINY":"Number","HOMEPART":"Number","MIN_ZOOM":"Number","MIN_LABEL":"Number","MAX_LABEL":"Number","NE_ID":"Number","WIKIDATAID":"String","NAME_AR":"String","NAME_BN":"String","NAME_DE":"String","NAME_EN":"String","NAME_ES":"String","NAME_FR":"String","NAME_EL":"String","NAME_HI":"String","NAME_HU":"String","NAME_ID":"String","NAME_IT":"String","NAME_JA":"String","NAME_KO":"String","NAME_NL":"String","NAME_PL":"String","NAME_PT":"String","NAME_RU":"String","NAME_SV":"String","NAME_TR":"String","NAME_VI":"String","NAME_ZH":"String"}},{"id":"50m_regions","description":"","minzoom":1, "maxzoom":5,"fields":{"REGION_WB":"String","REGION":"String"}}]
}
